[{"norad_id":"55833","company":"ONEWEB","tle_line2":"2 55833  87.9060 355.0568 0002181 105.5360 254.6010 13.14501113116286","launch_date":"2023-03-09","type":"LEO","tle_line1":"1 55833U 23029AP  25204.88457393  .00000031  00000+0  49214-4 0  9997","satellite_name":"ONEWEB-0674"},{"norad_id":"55834","company":"ONEWEB","tle_line2":"2 55834  87.9220  10.2498 0001591  84.3940 275.7374 13.19725458115628","launch_date":"2023-03-09","type":"LEO","tle_line1":"1 55834U 23029AQ  25204.92053167  .00000002  00000+0 -26660-4 0  9993","satellite_name":"ONEWEB-0675"},{"norad_id":"55835","company":"ONEWEB","tle_line2":"2 55835  87.9227  10.2485 0002236  87.1836 272.9553 13.19727400115542","launch_date":"2023-03-09","type":"LEO","tle_line1":"1 55835U 23029AR  25204.91262189 -.00000022  00000+0 -88186-4 0  9993","satellite_name":"ONEWEB-0720"},{"norad_id":"56046","company":"ONEWEB","tle_line2":"2 56046  87.9061 294.2138 0001777  98.4188 261.7144 13.16595490116661","launch_date":"2023-03-26","type":"LEO","tle_line1":"1 56046U 23043A   25204.81172912 -.00000113  00000+0 -32843-3 0  9996","satellite_name":"ONEWEB-0537"},{"norad_id":"56047","company":"ONEWEB","tle_line2":"2 56047  87.9054 294.2313 0001936  91.5886 268.5467 13.16592925115768","launch_date":"2023-03-26","type":"LEO","tle_line1":"1 56047U 23043B   25204.80539244 -.00000082  00000+0 -24779-3 0  9995","satellite_name":"ONEWEB-0538"},{"norad_id":"56048","company":"ONEWEB","tle_line2":"2 56048  87.9062 294.2110 0001319 108.1471 251.9804 13.16593447115753","launch_date":"2023-03-26","type":"LEO","tle_line1":"1 56048U 23043C   25204.79272157 -.00000025  00000+0 -99796-4 0  9990","satellite_name":"ONEWEB-0546"},{"norad_id":"56049","company":"ONEWEB","tle_line2":"2 56049  87.9272 309.4855 0002009  93.7329 266.4035 13.21828516114840","launch_date":"2023-03-26","type":"LEO","tle_line1":"1 56049U 23043D   25204.80273776  .00000002  00000+0 -27039-4 0  9996","satellite_name":"ONEWEB-0547"},{"norad_id":"56050","company":"ONEWEB","tle_line2":"2 56050  87.9047 294.2525 0002321 110.2242 249.9138 13.16592943115749","launch_date":"2023-03-26","type":"LEO","tle_line1":"1 56050U 23043E   25204.74205462 -.00000054  00000+0 -17416-3 0  9993","satellite_name":"ONEWEB-0548"}]